{"type":"FeatureCollection","features":[{"type":"Feature","geometry":{"type":"Polygon","coordinates":[[[80.79733258906195,7.349534907737462],[80.79746189399714,7.349320923709573],[80.79784980755628,7.349303059398411],[80.79834479606471,7.348696645420665],[80.79872822625198,7.348121440881559],[80.79882634419678,7.347902906776596],[80.79858557049093,7.347483757787703],[80.79887983997675,7.347403491661145],[80.79921873026858,7.347345495911307],[80.79942831756523,7.34778698764005],[80.79947741838122,7.348072364446342],[80.79993225446408,7.348250749614407],[80.80023099805832,7.348134793344345],[80.80063672980299,7.347978733950911],[80.80106485443697,7.347947509964215],[80.80128778933927,7.348112490552462],[80.80150624466212,7.348460277026236],[80.80177379880648,7.348638646011176],[80.8019611537847,7.348326498496762],[80.80234017233208,7.348134759229925],[80.80244268027457,7.347951930087495],[80.80231338334289,7.347613068226968],[80.80250961036933,7.347421325074906],[80.80279938661447,7.347283095367256],[80.802950992668,7.34713591540462],[80.80295547154931,7.346881797230752],[80.80306254209017,7.346574119884886],[80.8031740068507,7.346355616689627],[80.80344603430241,7.34631996154607],[80.80393203073102,7.346525058489784],[80.80427985735807,7.346627640321592],[80.80466782255263,7.34670341650246],[80.80493536618164,7.346801497510774],[80.80493088741058,7.3465740916403774],[80.80511815053079,7.346413543347977],[80.80541248062778,7.346324389372085],[80.80568889473376,7.346306590405632],[80.80593421040079,7.346431436127568],[80.80617944081571,7.346395717998205],[80.80637117971983,7.346253028646916],[80.80664319635831,7.346333350560541],[80.80703554430342,7.346462599411355],[80.8068259768259,7.3471180749143805],[80.8066877295942,7.347363337625279],[80.80669668694037,7.347671040206803],[80.80674569881687,7.348148201917635],[80.80679031649916,7.3484202069836355],[80.80679479516665,7.3487144554689525],[80.80672786863767,7.349004304920232],[80.80662976032973,7.349338751792603],[80.80659409991596,7.349659811076143],[80.80644250072926,7.350279582334762],[80.80635334945758,7.350756777900699],[80.80608133183871,7.351902758679227],[80.80476584874869,7.351340868610014],[80.80407476151869,7.3511536274678955],[80.80312051392576,7.351273973282454],[80.80257197699844,7.351086725245623],[80.80191653342351,7.35107782182099],[80.8013056207244,7.350538237308885],[80.80098457067797,7.350301952061634],[80.80073036641579,7.350154742944342],[80.80040931407395,7.350252882252589],[80.80017302414062,7.350266202598316],[80.79992777541447,7.349971976123057],[80.79959776173463,7.350038794770205],[80.79929453670461,7.350043321993988],[80.79906711718226,7.350524836941027],[80.79887096627164,7.350738918891177],[80.79854094825782,7.350734417623072],[80.79817087010971,7.3506675546523415],[80.79793896825169,7.350395526164196],[80.7974529356227,7.3501993740424405],[80.79728348693739,7.349753475094582],[80.79733258906195,7.349534907737462]]]},"id":"00000000000000000000","properties":{"id":"02756618D03DC8DF4FB0","mean":0.46977564089014956,"name":"NEW DIVIDON"}},{"type":"Feature","geometry":{"type":"Polygon","coordinates":[[[80.79520114052474,7.349102394206523],[80.79534828158901,7.349022121338406],[80.79534828158901,7.348616392321251],[80.79553556701185,7.348326501688686],[80.79537498838172,7.347978685095343],[80.7953794676847,7.34773345234873],[80.79545527773683,7.347443637499153],[80.79572733128258,7.34702892017997],[80.79591453130898,7.347234078536043],[80.79632036932946,7.347135976537689],[80.79657002377162,7.347064576049549],[80.79672612079005,7.34735442892613],[80.79612860647148,7.347514935674947],[80.79616427152415,7.3481169190117575],[80.79632036932946,7.348620806848629],[80.7965745030081,7.348580713918803],[80.79659681467287,7.348108041236817],[80.796761785578,7.348059024814003],[80.7970293554972,7.348228428245114],[80.79733698374291,7.348495971633677],[80.79749755845906,7.348366664085277],[80.79765804834209,7.347911827993758],[80.79788995100957,7.347653173552654],[80.79798806997637,7.3471047170966095],[80.79756888733546,7.346877351048816],[80.79743070870825,7.3466365250702985],[80.79765804834209,7.346181687995225],[80.79785428672152,7.345860610023744],[80.79793009444282,7.345816037622173],[80.79822884546981,7.345869527123953],[80.79836710723875,7.345771468645893],[80.7985454273846,7.34552622696013],[80.79865689840307,7.345294364447182],[80.79877284838123,7.345495037871728],[80.79873718448447,7.3461371072861885],[80.79888431908468,7.346275341481274],[80.7989646049392,7.346578549017386],[80.79886200805404,7.347002211255889],[80.79921433569038,7.347318754019937],[80.79855438563744,7.34747928639356],[80.79875501643482,7.347862808332824],[80.79871487341303,7.3480544960735426],[80.79828234164697,7.348723399646957],[80.79775616759161,7.349271874354551],[80.79750203764391,7.349271867491066],[80.79727461305625,7.349606256139955],[80.79757336651636,7.3504981265546405],[80.7972790922535,7.350515958631612],[80.7967662648038,7.350564997346211],[80.79661464709744,7.350266255781229],[80.79640505247346,7.349985314730593],[80.79582984764892,7.3497178057051915],[80.79578082912236,7.349450193672728],[80.79519218189868,7.349312003546521],[80.79520114052474,7.349102394206523]]]},"id":"00000000000000000001","properties":{"id":"01C9DF43253DC8E5797C","mean":0.5159932663716633,"name":"RANGALA 1"}},{"type":"Feature","geometry":{"type":"Polygon","coordinates":[[[80.79494691799476,7.345191821373652],[80.7949737094362,7.344991148807137],[80.7949737094362,7.344843960493786],[80.79498706289579,7.344652222243255],[80.79511189228118,7.344585349662152],[80.79521897325851,7.344487224232623],[80.79523680598834,7.344402505558566],[80.79522784736626,7.344286592954728],[80.79526799212721,7.344210808796297],[80.7953794676847,7.34423306624867],[80.79551325505294,7.344331168622129],[80.7956380836224,7.34443373255855],[80.7957451638998,7.344424848577984],[80.79586551283397,7.344389179434029],[80.79595915499819,7.344433727287829],[80.79591901058191,7.3444916635275135],[80.79593684315667,7.344571980737304],[80.79596363426865,7.3447057012886],[80.79590117800322,7.344772633299203],[80.79577634984173,7.344830622926882],[80.79570501937681,7.344781561627583],[80.79551325505294,7.344741435919647],[80.79546423633359,7.344799352958048],[80.79537059359366,7.344879662064623],[80.79532596957817,7.344964401377414],[80.79538842628989,7.345075872422046],[80.79556227374242,7.345040161461948],[80.79582536837101,7.3450223395596455],[80.79581201505047,7.345107069667555],[80.79572733128258,7.345093675244874],[80.79571837271511,7.345214111259697],[80.79552660842303,7.345316610318851],[80.79503168709913,7.345521764384939],[80.79496923011064,7.345379077997055],[80.79493804385604,7.345294329034723],[80.79494691799476,7.345191821373652]]]},"id":"00000000000000000002","properties":{"id":"0F2560E27E3DC8E6AB80","mean":0.4476058324024173,"name":"RANGALA 2"}},{"type":"Feature","geometry":{"type":"Polygon","coordinates":[[[80.79162048420864,7.347773618642675],[80.79157137860012,7.3475417129677245],[80.79156250408937,7.347399064924333],[80.79168285927575,7.3473589141262226],[80.79178994481353,7.347211723051681],[80.79182561178818,7.347082461186808],[80.79193261261736,7.347118076847231],[80.79214661384918,7.347131523430942],[80.79238292734492,7.34710916035818],[80.79242755299158,7.347247408456043],[80.79247217861354,7.347354441559886],[80.79262371960344,7.3473811928],[80.79273080389004,7.347287547910469],[80.79277982427364,7.347332159333919],[80.79285563677365,7.347439181795415],[80.79297599002729,7.3475684738111475],[80.7930206153453,7.3477245721089295],[80.79293144920229,7.347773596536044],[80.79283780351642,7.34772904530658],[80.79277534482604,7.347550656257514],[80.79271297060515,7.3474391827595795],[80.79265947072679,7.347474840337338],[80.79262371960344,7.3475684849794165],[80.7927173655383,7.347791445172087],[80.7925746991248,7.347581821531061],[80.79249440689703,7.347461503376825],[80.79236509398298,7.347550616203202],[80.79227144763847,7.34755953057571],[80.7921064675319,7.34757292788907],[80.79204409279289,7.34764426393453],[80.7920039464245,7.347720132202832],[80.79195932054307,7.34788955488053],[80.79182561178818,7.34826408205756],[80.79180777830283,7.348357769917613],[80.79178546531085,7.34855837966156],[80.79174979831842,7.348638660603001],[80.79148221085238,7.348611885213086],[80.79145989777018,7.348268542400749],[80.79144206420385,7.348121388951626],[80.79162048420864,7.347773618642675]]]},"id":"00000000000000000003","properties":{"id":"05C971050C3DC8E81ECE","mean":0.4773989098344836,"name":"RANGALA 3"}}]}